    CK16V18Z  2017 03  4.8945  0.912348  0.994202   36.3399   98.9316   24.0112  20220228  19.5  4.0  C/2016 VZ18 (PANSTARRS)                                  MPC106345
    PK16W48M  2017 02 23.2578  1.767325  0.783584   36.1101   59.9166  117.5210  20220228  15.0  4.0  P/2016 WM48 (Lemmon)                                     MPC106345
    CK16X010  2019 04 27.9134  7.559416  0.994028  224.4763  256.3744   26.4541  20220228   6.0  4.0  C/2016 X1 (Lemmon)                                       MPEC 2021-P47
    CK17A010  2017 05 15.9735  2.285531  0.969563    1.9453  121.0195   49.8106  20220228  13.0  4.0  C/2017 A1 (PANSTARRS)                                    MPC108594
    CK17A030  2017 01 31.0099  3.840770  0.911401  303.9309   97.8551   98.5048  20220228   9.5  4.0  C/2017 A3 (Elenin)                                       MPC108594
    CK17A05B  2018 02 14.5387  9.207645  0.996022   78.2957   42.6116   32.4549  20220228   5.5  4.0  C/2017 AB5 (PANSTARRS)                                   MPC114598
    CK17B030  2019 02  2.1383  3.926101  1.000914  284.8162    2.1765   54.1612  20220228   6.0  4.0  C/2017 B3 (LINEAR)                                       MPEC 2022-A21
    PK17B040  2017 01  5.8178  2.800894  0.364952   11.0197  121.4578   20.0584            14.5  4.0  P/2017 B4 (PANSTARRS)                                    MPC103847
    PK17D010  2027 02  1.7565  2.721198  0.436477    7.9756   82.1821   20.7601  20220228  14.0  4.0  P/2017 D1 (Fuls)                                         MPC104793
    CK17D020  2017 07 14.6924  2.497091  0.999779  334.6252  330.9504   31.2578  20220228  11.0  4.0  C/2017 D2 (Barros)                                       MPC112391
    CK17D030  2017 04 27.4504  4.966230  1.002080  340.8139  186.7141  125.5908  20220228   8.0  4.0  C/2017 D3 (ATLAS)                                        MPC114598
    PK17D040  2016 09  4.6871  2.806457  0.628513  212.1929  264.9383   10.5385  20220228  13.0  4.0  P/2017 D4 (PANSTARRS)                                    MPC110495
    CK17E010  2017 04 10.4340  0.906700  1.003240  152.7813  142.5709   14.5712  20220228  14.0  4.0  C/2017 E1 (Borisov)                                      MPC106346
    CK17E030  2017 06  7.3474  5.936443  1.005948  334.4660  220.7894   70.6593  20220228   6.5  4.0  C/2017 E3 (PANSTARRS)                                    MPEC 2021-P47
    CK17E040  2017 04 23.3617  0.491859  1.001485   87.0864  222.8042   87.9811  20220228  17.0  4.0  C/2017 E4 (Lovejoy)                                      MPC105239
    CK17F010  2017 11 28.9272  4.497544  1.002122   64.7253  158.7884  146.4610  20220228  10.5  4.0  C/2017 F1 (Lemmon)                                       MPC111769
    CK17F020  2017 11 26.2121  6.928128  1.002327  134.9519   38.6942   42.5464  20220228   7.5  4.0  C/2017 F2 (PANSTARRS)                                    MPC114598
    PK17G010  2016 04 26.8224  2.524912  0.653172  224.4343  249.6473    4.7789  20220228  13.5  4.0  P/2017 G1 (PANSTARRS)                                    MPC104794
    PK17G020  2017 06 10.0299  2.839015  0.647645  105.4852   79.8061   47.9522  20220228  13.0  4.0  P/2017 G2 (PANSTARRS)                                    MPC108595
    CK17G030  2017 04 16.3927  2.582243  0.991733   73.0295  279.4565  159.0347  20220228  14.0  4.0  C/2017 G3 (PANSTARRS)                                    MPEC 2021-P47
    CK17K010  2018 03 17.9595  7.287343  1.003315    4.4347  225.7078  154.0203  20220228   7.0  4.0  C/2017 K1 (PANSTARRS)                                    MPC115882
    CK17K020  2022 12 19.6875  1.797091  1.000724  236.1933   88.2364   87.5592  20220228   1.5  4.0  C/2017 K2 (PANSTARRS)                                    MPEC 2022-D36
    PK17K030  2017 05 29.7697  2.347162  0.579657  253.4449  354.2877    4.2730  20220228  14.5  4.0  P/2017 K3 (Gasparovic)                                   MPEC 2021-N06
    CK17K040  2018 01  8.4528  2.657075  0.907277   15.3152  298.8919   16.6724  20220228  10.0  4.0  C/2017 K4 (ATLAS)                                        MPC114598
    CK17K050  2020 03 27.2282  7.682700  1.005538  172.0508  102.3745   82.2381  20220228   5.0  4.0  C/2017 K5 (PANSTARRS)                                    MPEC 2021-P47
    CK17K060  2018 01  3.8211  1.995563  0.998277  303.7735   84.9564   57.2303  20220228  11.0  4.0  C/2017 K6 (Jacques)                                      MPC114599
    CK17M030  2017 04 28.3412  4.651645  0.972128  110.2790    7.0380   77.5894  20220228  10.5  4.0  C/2017 M3 (PANSTARRS)                                    MPEC 2021-P47
    CK17M040  2019 01 17.9582  3.253447  1.001392  167.6167   65.9241  105.6469  20220228   6.0  4.0  C/2017 M4 (ATLAS)                                        MPEC 2021-Y10
    CK17M050  2018 06  4.4609  6.000201  1.005412   92.8279  216.2888   15.8680  20220228   6.5  4.0  C/2017 M5 (TOTAS)                                        MPC118841
    CK17O010  2017 10 15.5095  1.491613  0.995951   20.8373   25.7258   39.9644  20220228  11.0  4.0  C/2017 O1 (ASASSN)                                       MPC114599
    PK17P010  2018 06 21.5396  5.447379  0.311019  122.5407  221.3818    7.6918  20220228  10.0  4.0  P/2017 P1 (PANSTARRS)                                    MPC114599
    CK17P020  2017 12  6.2796  2.472037  0.999010  132.4705  165.4576   50.0484  20220228  10.0  4.0  C/2017 P2 (PANSTARRS)                                    MPC114599
    PK17R010  2025 09  7.8208  3.326097  0.195612  178.7155  143.6159    2.5744  20220228  13.5  4.0  P/2017 R1 (PANSTARRS)                                    MPEC 2022-D36
    CK17S020  2017 08 30.5033  3.613085  0.824778  306.0715   62.3460   12.6711  20220228  13.0  4.0  C/2017 S2 (PANSTARRS)                                    MPC108595
    CK17S030  2018 08 16.3716  0.206536  1.000068  255.8023  171.3058   99.2048  20220228  11.0  4.0  C/2017 S3 (PANSTARRS)                                    MPC114599
    CK17S060  2018 02 26.1573  1.548965  1.000803  134.9268  131.0694  152.8667  20220228  12.5  4.0  C/2017 S6 (Catalina)                                     MPC109591
    CK17S070  2017 05 23.9562  7.606644  0.998985  187.5212  262.7419  124.2246  20220228   7.0  4.0  C/2017 S7 (Lemmon)                                       MPC114599
    PK17S080  2022 09 16.2785  1.692792  0.391124  254.7973  191.5259   29.8559  20220228  16.0  4.0  P/2017 S8 (PANSTARRS)                                    MPC114599
    PK17S090  2023 02 27.5303  2.190747  0.305433  237.6734  146.2229   14.1440  20220228  17.0  4.0  P/2017 S9 (PANSTARRS)                                    MPC107050
    CK17T010  2018 02 20.7909  0.585059  0.999950   97.0011  102.4460   96.8794  20220228  14.5  4.0  C/2017 T1 (Heinze)                                       MPC114600
    CK17T020  2020 05  4.8310  1.615253  0.999171   92.9781   64.3847   57.2365  20220228   5.0  4.0  C/2017 T2 (PANSTARRS)                                    MPEC 2021-Y10
    CK17T030  2018 07 18.9024  0.824627  0.999303  246.8208  230.1623   88.1712  20220228  10.0  4.0  C/2017 T3 (ATLAS)                                        MPC114600
    PK17T13W  2018 06 21.1941  2.071422  0.709819  119.9307  322.2898   44.8496  20220228  15.0  2.0  P/2017 TW13 (Lemmon)                                     MPC115882
    CK17U020  2017 08 28.1795  6.713390  0.997564  147.8590  149.7089   95.3886  20220228   9.0  4.0  C/2017 U2 (Fuls)                                         MPC114600
    PK17U030  2019 04 13.6072  4.438974  0.099084  296.5217  165.1109   15.9187  20220228  11.0  4.0  P/2017 U3 (PANSTARRS)                                    MPC114600
    CK17U040  2018 09 22.4351  7.720928  1.000809  158.9862  245.9265  158.2076  20220228   7.0  4.0  C/2017 U4 (PANSTARRS)                                    MPEC 2021-P47
    CK17U050  2017 12 18.9578  4.316915  0.744409  261.9964  163.0863   18.9785  20220228  12.0  4.0  C/2017 U5 (PANSTARRS)                                    MPC114600
    CK17U070  2019 09 14.5816  6.425644  1.000784  326.3628  276.2498  142.5985  20220228   8.3  2.0  C/2017 U7 (PANSTARRS)                                    MPEC 2022-CN4
    CK17W020  2017 10 31.6632  3.947505  0.710341  168.9341  312.8308   98.2018  20220228  11.0  4.0  C/2017 W2 (Leonard)                                      MPC114600
    PK17W030  2018 02 27.7990  3.866465  0.506667  327.8456  210.2426   18.1667  20220228  10.5  4.0  P/2017 W3 (Gibbs)                                        MPC114601
    CK17X010  2018 06 14.4823  4.668214  0.850106  283.2255  251.1385   31.3183  20220228  10.0  4.0  C/2017 X1 (PANSTARRS)                                    MPEC 2021-R75
    CK17Y010  2017 08 31.4632  3.705693  0.997904  134.2551  307.5112   55.2596  20220228  11.5  4.0  C/2017 Y1 (PANSTARRS)                                    MPC117069
    CK17Y020  2020 11  4.9336  4.632783  1.000980  147.9185   65.9969  128.4207  20220228  15.0  4.0  C/2017 Y2 (PANSTARRS)                                    MPEC 2022-D36
    PK17Y030  2018 02  9.7219  1.280973  0.869742   67.6071  153.8433   27.5578  20220228  16.5  4.0  P/2017 Y3 (Leonard)                                      MPC111770
    CK18A010  2017 10 21.0501  2.409501  0.904013   96.2034  336.6592   53.6137  20220228  12.5  4.0  C/2018 A1 (PANSTARRS)                                    MPC114601
    CK18A030  2019 01 11.8958  3.276480  0.991941   86.3649  194.2931  139.5375  20220228   8.5  4.0  C/2018 A3 (ATLAS)                                        MPEC 2021-P47
    CK18A040  2018 05 18.7550  2.394749  0.803505  355.9816   97.6069    3.1492  20220228  14.0  4.0  C/2018 A4 (PANSTARRS)                                    MPC114601
    PK18A050  2017 09 23.2692  2.687422  0.522763  359.5086   87.8058   23.5932  20220228  15.0  4.0  P/2018 A5 (PANSTARRS)                                    MPC109147
